SAUDISAT 1C (SO-50)     
1 27607U 02058C   26063.15438645  .00002476  00000+0  30920-3 0  9995
2 27607  64.5519  93.8922 0075133 281.7019  77.5664 14.82756785248882
SAUDISAT 2              
1 28371U 04025F   26062.58839591  .00000486  00000+0  11984-3 0  9999
2 28371  98.5493  59.8567 0023518 260.7971  99.0566 14.56610022150370
SAUDISAT 3              
1 31118U 07012B   26062.85287469  .00000545  00000+0  96265-4 0  9994
2 31118  98.1339  13.2614 0014142 197.6268 162.4449 14.71347456 12259
PISAT                   
1 41784U 16059B   26062.55766424  .00001447  00000+0  25467-3 0  9992
2 41784  97.8188  67.5655 0029051 180.1556 179.9646 14.68755523504236
FLYING LAPTOP           
1 42831U 17042G   26063.17637476  .00004272  00000+0  34263-3 0  9995
2 42831  97.4250 223.0967 0018555 113.2625 247.0555 15.00470699470707
SALSAT                  
1 46495U 20068K   26062.77970162  .00012684  00000+0  46597-3 0  9993
2 46495  97.8847  59.5668 0008731 321.6728  38.3888 15.28039347299257
